{
  "timestamp": "2025-10-04T12:28:05.039749",
  "data": [
    {
      "OBJECT_NAME": "UNKNOWN",
      "OBJECT_ID": "",
      "EPOCH": "2025-10-02T12:02:47.847552",
      "MEAN_MOTION": 14.69405272,
      "ECCENTRICITY": 0.0071191,
      "INCLINATION": 98.8151,
      "RA_OF_ASC_NODE": 6.255,
      "ARG_OF_PERICENTER": 225.7547,
      "MEAN_ANOMALY": 133.7799,
      "EPHEMERIS_TYPE": 0,
      "CLASSIFICATION_TYPE": "U",
      "NORAD_CAT_ID": 81371,
      "ELEMENT_SET_NO": 999,
      "REV_AT_EPOCH": 63137,
      "BSTAR": 0.0018208,
      "MEAN_MOTION_DOT": 0.00011153,
      "MEAN_MOTION_DDOT": 0
    },
    {
      "OBJECT_NAME": "UNKNOWN",
      "OBJECT_ID": "",
      "EPOCH": "2025-09-30T09:37:30.921312",
      "MEAN_MOTION": 14.34924458,
      "ECCENTRICITY": 0.0092389,
      "INCLINATION": 71.0474,
      "RA_OF_ASC_NODE": 155.4849,
      "ARG_OF_PERICENTER": 203.4487,
      "MEAN_ANOMALY": 156.2423,
      "EPHEMERIS_TYPE": 0,
      "CLASSIFICATION_TYPE": "U",
      "NORAD_CAT_ID": 81386,
      "ELEMENT_SET_NO": 999,
      "REV_AT_EPOCH": 61371,
      "BSTAR": 0.0033301,
      "MEAN_MOTION_DOT": 9.908e-5,
      "MEAN_MOTION_DDOT": 0
    },
    {
      "OBJECT_NAME": "UNKNOWN",
      "OBJECT_ID": "",
      "EPOCH": "2025-10-01T22:11:59.834976",
      "MEAN_MOTION": 12.35694667,
      "ECCENTRICITY": 0.0175301,
      "INCLINATION": 103.1047,
      "RA_OF_ASC_NODE": 158.8619,
      "ARG_OF_PERICENTER": 273.1776,
      "MEAN_ANOMALY": 84.9237,
      "EPHEMERIS_TYPE": 0,
      "CLASSIFICATION_TYPE": "U",
      "NORAD_CAT_ID": 81390,
      "ELEMENT_SET_NO": 999,
      "REV_AT_EPOCH": 49122,
      "BSTAR": -0.002124,
      "MEAN_MOTION_DOT": -3.34e-6,
      "MEAN_MOTION_DDOT": 0
    },
    {
      "OBJECT_NAME": "UNKNOWN",
      "OBJECT_ID": "",
      "EPOCH": "2025-10-01T17:24:51.388992",
      "MEAN_MOTION": 13.81043664,
      "ECCENTRICITY": 0.0035164,
      "INCLINATION": 100.3921,
      "RA_OF_ASC_NODE": 255.7512,
      "ARG_OF_PERICENTER": 221.9805,
      "MEAN_ANOMALY": 318.9418,
      "EPHEMERIS_TYPE": 0,
      "CLASSIFICATION_TYPE": "U",
      "NORAD_CAT_ID": 81392,
      "ELEMENT_SET_NO": 999,
      "REV_AT_EPOCH": 59223,
      "BSTAR": 0.0062892,
      "MEAN_MOTION_DOT": 6.632e-5,
      "MEAN_MOTION_DDOT": 0
    },
    {
      "OBJECT_NAME": "UNKNOWN",
      "OBJECT_ID": "",
      "EPOCH": "2025-10-02T22:43:59.484864",
      "MEAN_MOTION": 13.88574924,
      "ECCENTRICITY": 0.0160171,
      "INCLINATION": 99.4763,
      "RA_OF_ASC_NODE": 322.9867,
      "ARG_OF_PERICENTER": 53.6491,
      "MEAN_ANOMALY": 307.9328,
      "EPHEMERIS_TYPE": 0,
      "CLASSIFICATION_TYPE": "U",
      "NORAD_CAT_ID": 81405,
      "ELEMENT_SET_NO": 999,
      "REV_AT_EPOCH": 55197,
      "BSTAR": 0.002208,
      "MEAN_MOTION_DOT": 2.897e-5,
      "MEAN_MOTION_DDOT": 0
    },
    {
      "OBJECT_NAME": "UNKNOWN",
      "OBJECT_ID": "",
      "EPOCH": "2025-09-30T18:00:12.381984",
      "MEAN_MOTION": 13.11550645,
      "ECCENTRICITY": 0.0863616,
      "INCLINATION": 65.8063,
      "RA_OF_ASC_NODE": 318.9651,
      "ARG_OF_PERICENTER": 352.0049,
      "MEAN_ANOMALY": 6.7917,
      "EPHEMERIS_TYPE": 0,
      "CLASSIFICATION_TYPE": "U",
      "NORAD_CAT_ID": 81406,
      "ELEMENT_SET_NO": 999,
      "REV_AT_EPOCH": 52410,
      "BSTAR": 0.00139,
      "MEAN_MOTION_DOT": 3.374e-5,
      "MEAN_MOTION_DDOT": 0
    },
    {
      "OBJECT_NAME": "UNKNOWN",
      "OBJECT_ID": "",
      "EPOCH": "2025-09-26T14:54:25.405632",
      "MEAN_MOTION": 14.06741277,
      "ECCENTRICITY": 0.0083477,
      "INCLINATION": 98.7549,
      "RA_OF_ASC_NODE": 154.2254,
      "ARG_OF_PERICENTER": 255.889,
      "MEAN_ANOMALY": 103.2992,
      "EPHEMERIS_TYPE": 0,
      "CLASSIFICATION_TYPE": "U",
      "NORAD_CAT_ID": 81427,
      "ELEMENT_SET_NO": 999,
      "REV_AT_EPOCH": 54092,
      "BSTAR": 0.00091361,
      "MEAN_MOTION_DOT": 1.524e-5,
      "MEAN_MOTION_DDOT": 0
    },
    {
      "OBJECT_NAME": "UNKNOWN",
      "OBJECT_ID": "",
      "EPOCH": "2025-10-01T08:32:33.062208",
      "MEAN_MOTION": 13.54136619,
      "ECCENTRICITY": 0.0049501,
      "INCLINATION": 100.3039,
      "RA_OF_ASC_NODE": 143.0096,
      "ARG_OF_PERICENTER": 263.5432,
      "MEAN_ANOMALY": 96.0065,
      "EPHEMERIS_TYPE": 0,
      "CLASSIFICATION_TYPE": "U",
      "NORAD_CAT_ID": 81438,
      "ELEMENT_SET_NO": 999,
      "REV_AT_EPOCH": 58214,
      "BSTAR": 0.0067812,
      "MEAN_MOTION_DOT": 4.595e-5,
      "MEAN_MOTION_DDOT": 0
    },
    {
      "OBJECT_NAME": "UNKNOWN",
      "OBJECT_ID": "",
      "EPOCH": "2025-10-03T07:20:24.347904",
      "MEAN_MOTION": 12.62592666,
      "ECCENTRICITY": 0.0609382,
      "INCLINATION": 67.1586,
      "RA_OF_ASC_NODE": 278.0097,
      "ARG_OF_PERICENTER": 246.4379,
      "MEAN_ANOMALY": 107.1516,
      "EPHEMERIS_TYPE": 0,
      "CLASSIFICATION_TYPE": "U",
      "NORAD_CAT_ID": 81439,
      "ELEMENT_SET_NO": 999,
      "REV_AT_EPOCH": 25300,
      "BSTAR": 0.0014583,
      "MEAN_MOTION_DOT": 4.84e-6,
      "MEAN_MOTION_DDOT": 0
    },
    {
      "OBJECT_NAME": "UNKNOWN",
      "OBJECT_ID": "",
      "EPOCH": "2025-10-03T04:23:01.688352",
      "MEAN_MOTION": 14.8943604,
      "ECCENTRICITY": 0.0033931,
      "INCLINATION": 66.7971,
      "RA_OF_ASC_NODE": 195.5004,
      "ARG_OF_PERICENTER": 197.4872,
      "MEAN_ANOMALY": 162.5092,
      "EPHEMERIS_TYPE": 0,
      "CLASSIFICATION_TYPE": "U",
      "NORAD_CAT_ID": 81449,
      "ELEMENT_SET_NO": 999,
      "REV_AT_EPOCH": 62301,
      "BSTAR": 0.012111,
      "MEAN_MOTION_DOT": 0.00118582,
      "MEAN_MOTION_DDOT": 0
    },
    {
      "OBJECT_NAME": "UNKNOWN",
      "OBJECT_ID": "",
      "EPOCH": "2025-10-03T06:33:03.299040",
      "MEAN_MOTION": 14.27427442,
      "ECCENTRICITY": 0.0146011,
      "INCLINATION": 98.9443,
      "RA_OF_ASC_NODE": 186.4443,
      "ARG_OF_PERICENTER": 202.2568,
      "MEAN_ANOMALY": 290.4888,
      "EPHEMERIS_TYPE": 0,
      "CLASSIFICATION_TYPE": "U",
      "NORAD_CAT_ID": 81478,
      "ELEMENT_SET_NO": 999,
      "REV_AT_EPOCH": 61288,
      "BSTAR": 0.0028192,
      "MEAN_MOTION_DOT": 7.706e-5,
      "MEAN_MOTION_DDOT": 0
    },
    {
      "OBJECT_NAME": "UNKNOWN",
      "OBJECT_ID": "",
      "EPOCH": "2025-10-03T09:53:41.811936",
      "MEAN_MOTION": 13.56469764,
      "ECCENTRICITY": 0.0044223,
      "INCLINATION": 100.0099,
      "RA_OF_ASC_NODE": 148.0011,
      "ARG_OF_PERICENTER": 173.4699,
      "MEAN_ANOMALY": 8.9725,
      "EPHEMERIS_TYPE": 0,
      "CLASSIFICATION_TYPE": "U",
      "NORAD_CAT_ID": 81488,
      "ELEMENT_SET_NO": 999,
      "REV_AT_EPOCH": 58709,
      "BSTAR": 0.00084181,
      "MEAN_MOTION_DOT": 5.51e-6,
      "MEAN_MOTION_DDOT": 0
    },
    {
      "OBJECT_NAME": "UNKNOWN",
      "OBJECT_ID": "",
      "EPOCH": "2025-09-22T10:55:13.681344",
      "MEAN_MOTION": 13.83267501,
      "ECCENTRICITY": 0.0026475,
      "INCLINATION": 100.3013,
      "RA_OF_ASC_NODE": 152.4357,
      "ARG_OF_PERICENTER": 226.1767,
      "MEAN_ANOMALY": 314.5658,
      "EPHEMERIS_TYPE": 0,
      "CLASSIFICATION_TYPE": "U",
      "NORAD_CAT_ID": 81497,
      "ELEMENT_SET_NO": 999,
      "REV_AT_EPOCH": 20505,
      "BSTAR": 0.004768,
      "MEAN_MOTION_DOT": 5.2e-5,
      "MEAN_MOTION_DDOT": 0
    },
    {
      "OBJECT_NAME": "UNKNOWN",
      "OBJECT_ID": "",
      "EPOCH": "2025-10-02T11:38:45.084192",
      "MEAN_MOTION": 14.46533959,
      "ECCENTRICITY": 5.13e-5,
      "INCLINATION": 74.0518,
      "RA_OF_ASC_NODE": 354.0815,
      "ARG_OF_PERICENTER": 5.4395,
      "MEAN_ANOMALY": 354.6769,
      "EPHEMERIS_TYPE": 0,
      "CLASSIFICATION_TYPE": "U",
      "NORAD_CAT_ID": 81499,
      "ELEMENT_SET_NO": 999,
      "REV_AT_EPOCH": 47211,
      "BSTAR": 0.0017942,
      "MEAN_MOTION_DOT": 6.442e-5,
      "MEAN_MOTION_DDOT": 0
    },
    {
      "OBJECT_NAME": "UNKNOWN",
      "OBJECT_ID": "",
      "EPOCH": "2025-10-03T11:41:15.974016",
      "MEAN_MOTION": 14.13148819,
      "ECCENTRICITY": 0.0235417,
      "INCLINATION": 98.2046,
      "RA_OF_ASC_NODE": 4.4517,
      "ARG_OF_PERICENTER": 352.2476,
      "MEAN_ANOMALY": 7.5084,
      "EPHEMERIS_TYPE": 0,
      "CLASSIFICATION_TYPE": "U",
      "NORAD_CAT_ID": 81535,
      "ELEMENT_SET_NO": 999,
      "REV_AT_EPOCH": 37747,
      "BSTAR": 0.00087287,
      "MEAN_MOTION_DOT": 2.084e-5,
      "MEAN_MOTION_DDOT": 0
    },
    {
      "OBJECT_NAME": "UNKNOWN",
      "OBJECT_ID": "",
      "EPOCH": "2025-10-01T08:27:47.924064",
      "MEAN_MOTION": 12.5574107,
      "ECCENTRICITY": 0.0029306,
      "INCLINATION": 101.9549,
      "RA_OF_ASC_NODE": 134.5956,
      "ARG_OF_PERICENTER": 36.2946,
      "MEAN_ANOMALY": 143.0198,
      "EPHEMERIS_TYPE": 0,
      "CLASSIFICATION_TYPE": "U",
      "NORAD_CAT_ID": 81536,
      "ELEMENT_SET_NO": 999,
      "REV_AT_EPOCH": 54272,
      "BSTAR": 0.0053845,
      "MEAN_MOTION_DOT": 8.38e-6,
      "MEAN_MOTION_DDOT": 0
    },
    {
      "OBJECT_NAME": "UNKNOWN",
      "OBJECT_ID": "",
      "EPOCH": "2025-10-03T15:42:36.795456",
      "MEAN_MOTION": 14.07021484,
      "ECCENTRICITY": 0.0079874,
      "INCLINATION": 71.0384,
      "RA_OF_ASC_NODE": 254.2344,
      "ARG_OF_PERICENTER": 258.5212,
      "MEAN_ANOMALY": 100.6929,
      "EPHEMERIS_TYPE": 0,
      "CLASSIFICATION_TYPE": "U",
      "NORAD_CAT_ID": 81537,
      "ELEMENT_SET_NO": 999,
      "REV_AT_EPOCH": 61060,
      "BSTAR": 0.00036203,
      "MEAN_MOTION_DOT": 5.76e-6,
      "MEAN_MOTION_DDOT": 0
    },
    {
      "OBJECT_NAME": "UNKNOWN",
      "OBJECT_ID": "",
      "EPOCH": "2025-09-18T07:25:50.523456",
      "MEAN_MOTION": 13.17937176,
      "ECCENTRICITY": 0.025585,
      "INCLINATION": 99.0586,
      "RA_OF_ASC_NODE": 199.7667,
      "ARG_OF_PERICENTER": 222.8303,
      "MEAN_ANOMALY": 135.2631,
      "EPHEMERIS_TYPE": 0,
      "CLASSIFICATION_TYPE": "U",
      "NORAD_CAT_ID": 81552,
      "ELEMENT_SET_NO": 999,
      "REV_AT_EPOCH": 56799,
      "BSTAR": 0.0022327,
      "MEAN_MOTION_DOT": 9.95e-6,
      "MEAN_MOTION_DDOT": 0
    }
  ]
}
